{
  "type": "FeatureCollection",
  "features": [
    {
      "type": "Feature",
      "properties": {
        "norad_id": 54741,
        "name": "GALAXY 35 (G-35)",
        "group": "intelsat",
        "lat": -0.0085647003711085,
        "lon": 173.37860129939557,
        "alt_km": 35788.10215288461,
        "timestamp": "2025-12-24T11:32:59.672154+00:00",
        "meta_object_name": "GALAXY 35 (G-35)",
        "meta_object_id": "2022-170A",
        "meta_epoch": "2025-12-23T19:32:14.656128",
        "meta_mean_motion": 1.00270866,
        "meta_eccentricity": 0.0002253,
        "meta_inclination": 0.0311,
        "meta_ra_of_asc_node": 247.4334,
        "meta_arg_of_pericenter": 26.3801,
        "meta_mean_anomaly": 18.7541,
        "meta_ephemeris_type": 0,
        "meta_classification_type": "U",
        "meta_norad_cat_id": 54741,
        "meta_element_set_no": 999,
        "meta_rev_at_epoch": 1113,
        "meta_bstar": 0,
        "meta_mean_motion_dot": -1.41e-06,
        "meta_mean_motion_ddot": 0,
        "tle_line1": "1 54741U 22170A   25357.81405852 -.00000141  00000+0  00000+0 0  9993",
        "tle_line2": "2 54741   0.0311 247.4334 0002253  26.3801  18.7541  1.00270866 11139"
      },
      "geometry": {
        "type": "Point",
        "coordinates": [
          173.37860129939557,
          -0.0085647003711085
        ]
      }
    },
    {
      "type": "Feature",
      "properties": {
        "norad_id": 54742,
        "name": "GALAXY 36 (G-36)",
        "group": "intelsat",
        "lat": 0.02192387569698614,
        "lon": 177.50298907957716,
        "alt_km": 35787.405413744724,
        "timestamp": "2025-12-24T11:32:59.672166+00:00",
        "meta_object_name": "GALAXY 36 (G-36)",
        "meta_object_id": "2022-170B",
        "meta_epoch": "2025-12-24T02:38:43.609344",
        "meta_mean_motion": 1.00272435,
        "meta_eccentricity": 3.58e-05,
        "meta_inclination": 0.0172,
        "meta_ra_of_asc_node": 70.1558,
        "meta_arg_of_pericenter": 278.5007,
        "meta_mean_anomaly": 54.9201,
        "meta_ephemeris_type": 0,
        "meta_classification_type": "U",
        "meta_norad_cat_id": 54742,
        "meta_element_set_no": 999,
        "meta_rev_at_epoch": 1101,
        "meta_bstar": 0,
        "meta_mean_motion_dot": -1.64e-06,
        "meta_mean_motion_ddot": 0,
        "tle_line1": "1 54742U 22170B   25358.11022696 -.00000164  00000+0  00000+0 0  9994",
        "tle_line2": "2 54742   0.0172  70.1558 0000358 278.5007  54.9201  1.00272435 11013"
      },
      "geometry": {
        "type": "Point",
        "coordinates": [
          177.50298907957716,
          0.02192387569698614
        ]
      }
    },
    {
      "type": "Feature",
      "properties": {
        "norad_id": 57493,
        "name": "GALAXY 37 (G-37)",
        "group": "intelsat",
        "lat": 0.0284500858860614,
        "lon": 139.47285169564995,
        "alt_km": 35792.4403833821,
        "timestamp": "2025-12-24T11:32:59.672178+00:00",
        "meta_object_name": "GALAXY 37 (G-37)",
        "meta_object_id": "2023-112A",
        "meta_epoch": "2025-12-24T02:04:17.533056",
        "meta_mean_motion": 1.00271551,
        "meta_eccentricity": 0.0002029,
        "meta_inclination": 0.0164,
        "meta_ra_of_asc_node": 4.2531,
        "meta_arg_of_pericenter": 272.607,
        "meta_mean_anomaly": 80.0704,
        "meta_ephemeris_type": 0,
        "meta_classification_type": "U",
        "meta_norad_cat_id": 57493,
        "meta_element_set_no": 999,
        "meta_rev_at_epoch": 878,
        "meta_bstar": 0,
        "meta_mean_motion_dot": 6.9e-07,
        "meta_mean_motion_ddot": 0,
        "tle_line1": "1 57493U 23112A   25358.08631404  .00000069  00000+0  00000+0 0  9999",
        "tle_line2": "2 57493   0.0164   4.2531 0002029 272.6070  80.0704  1.00271551  8787"
      },
      "geometry": {
        "type": "Point",
        "coordinates": [
          139.47285169564995,
          0.0284500858860614
        ]
      }
    }
  ]
}